AAC-AIS-SAT1            
1 55107U 23001DC  26201.56492010  .00003063  00000+0  30477-3 0  9997
2 55107  97.9182 278.5133 0010227 161.1054 199.0546 14.92366459183268
