[
  {
    "OBJECT_NAME": "AAC-AIS-SAT1",
    "OBJECT_ID": "2023-001DC",
    "EPOCH": "2026-07-20T13:33:29.097000",
    "MEAN_MOTION": 14.92366459,
    "ECCENTRICITY": 0.0010227,
    "INCLINATION": 97.9182,
    "RA_OF_ASC_NODE": 278.5133,
    "ARG_OF_PERICENTER": 161.1054,
    "MEAN_ANOMALY": 199.0546,
    "EPHEMERIS_TYPE": 0,
    "CLASSIFICATION_TYPE": "U",
    "NORAD_CAT_ID": 55107,
    "ELEMENT_SET_NO": 999,
    "REV_AT_EPOCH": 18326,
    "BSTAR": 0.00030477,
    "MEAN_MOTION_DOT": 0.00003063,
    "MEAN_MOTION_DDOT": 0
  }
]
